{"type": "FeatureCollection", "features": [ {"type": "Feature", "properties": {"norad_id": 43058, "name": "GSAT0218 (GALILEO 22)", "group": "galileo", "lat": -20.732408111212127, "lon": -148.8049338620372, "alt_km": 23217.58505700442, "timestamp": "2025-12-18T10:51:26.069129+00:00", "meta": {"OBJECT_NAME": "GSAT0218 (GALILEO 22)", "OBJECT_ID": "2017-079D", "EPOCH": "2025-12-12T15:04:31.769472", "MEAN_MOTION": 1.70474063, "ECCENTRICITY": 0.00028411, "INCLINATION": 55.1287, "RA_OF_ASC_NODE": 226.6365, "ARG_OF_PERICENTER": 306.3289, "MEAN_ANOMALY": 53.7237, "EPHEMERIS_TYPE": 0, "CLASSIFICATION_TYPE": "U", "NORAD_CAT_ID": 43058, "ELEMENT_SET_NO": 999, "REV_AT_EPOCH": 4983, "BSTAR": 0, "MEAN_MOTION_DOT": 1.7e-07, "MEAN_MOTION_DDOT": 0}, "tle": {"line1": "1 43058U 17079D   25346.62814548  .00000017  00000+0  00000+0 0  9998", "line2": "2 43058  55.1287 226.6365 0002841 306.3289  53.7237  1.70474063 49839"}}, "geometry": {"type": "Point", "coordinates": [-148.8049338620372, -20.732408111212127]}}, {"type": "Feature", "properties": {"norad_id": 43564, "name": "GSAT0221 (GALILEO 25)", "group": "galileo", "lat": 28.222738582887526, "lon": 6.8900276180974105, "alt_km": 23225.220315895127, "timestamp": "2025-12-18T10:51:26.069147+00:00", "meta": {"OBJECT_NAME": "GSAT0221 (GALILEO 25)", "OBJECT_ID": "2018-060A", "EPOCH": "2025-12-16T15:17:04.727328", "MEAN_MOTION": 1.70475939, "ECCENTRICITY": 0.00067149, "INCLINATION": 57.227, "RA_OF_ASC_NODE": 346.7122, "ARG_OF_PERICENTER": 284.7642, "MEAN_ANOMALY": 75.1785, "EPHEMERIS_TYPE": 0, "CLASSIFICATION_TYPE": "U", "NORAD_CAT_ID": 43564, "ELEMENT_SET_NO": 999, "REV_AT_EPOCH": 4605, "BSTAR": 0, "MEAN_MOTION_DOT": -8e-07, "MEAN_MOTION_DDOT": 0}, "tle": {"line1": "1 43564U 18060A   25350.63686027 -.00000080  00000+0  00000+0 0  9997", "line2": "2 43564  57.2270 346.7122 0006714 284.7642  75.1785  1.70475939 46056"}}, "geometry": {"type": "Point", "coordinates": [6.8900276180974105, 28.222738582887526]}}, {"type": "Feature", "properties": {"norad_id": 43565, "name": "GSAT0222 (GALILEO 26)", "group": "galileo", "lat": -55.765097356277415, "lon": -122.1202486592344, "alt_km": 23209.99269556886, "timestamp": "2025-12-18T10:51:26.069171+00:00", "meta": {"OBJECT_NAME": "GSAT0222 (GALILEO 26)", "OBJECT_ID": "2018-060B", "EPOCH": "2025-12-17T10:37:36.955776", "MEAN_MOTION": 1.70475657, "ECCENTRICITY": 0.0006092, "INCLINATION": 57.2302, "RA_OF_ASC_NODE": 346.6935, "ARG_OF_PERICENTER": 265.3285, "MEAN_ANOMALY": 94.6178, "EPHEMERIS_TYPE": 0, "CLASSIFICATION_TYPE": "U", "NORAD_CAT_ID": 43565, "ELEMENT_SET_NO": 999, "REV_AT_EPOCH": 4611, "BSTAR": 0, "MEAN_MOTION_DOT": -7.8e-07, "MEAN_MOTION_DDOT": 0}, "tle": {"line1": "1 43565U 18060B   25351.44278884 -.00000078  00000+0  00000+0 0  9993", "line2": "2 43565  57.2302 346.6935 0006092 265.3285  94.6178  1.70475657 46117"}}, "geometry": {"type": "Point", "coordinates": [-122.1202486592344, -55.765097356277415]}}, {"type": "Feature", "properties": {"norad_id": 43566, "name": "GSAT0219 (GALILEO 23)", "group": "galileo", "lat": 44.27798498209377, "lon": 127.74214591180686, "alt_km": 23233.32169398491, "timestamp": "2025-12-18T10:51:26.069191+00:00", "meta": {"OBJECT_NAME": "GSAT0219 (GALILEO 23)", "OBJECT_ID": "2018-060C", "EPOCH": "2025-12-15T21:42:00.874656", "MEAN_MOTION": 1.70475845, "ECCENTRICITY": 0.00058258, "INCLINATION": 57.2298, "RA_OF_ASC_NODE": 346.7365, "ARG_OF_PERICENTER": 287.9846, "MEAN_ANOMALY": 71.9699, "EPHEMERIS_TYPE": 0, "CLASSIFICATION_TYPE": "U", "NORAD_CAT_ID": 43566, "ELEMENT_SET_NO": 999, "REV_AT_EPOCH": 4606, "BSTAR": 0, "MEAN_MOTION_DOT": -8.2e-07, "MEAN_MOTION_DDOT": 0}, "tle": {"line1": "1 43566U 18060C   25349.90417679 -.00000082  00000+0  00000+0 0  9994", "line2": "2 43566  57.2298 346.7365 0005825 287.9846  71.9699  1.70475845 46065"}}, "geometry": {"type": "Point", "coordinates": [127.74214591180686, 44.27798498209377]}}, {"type": "Feature", "properties": {"norad_id": 43567, "name": "GSAT0220 (GALILEO 24)", "group": "galileo", "lat": -9.812257138823444, "lon": -19.735207011403364, "alt_km": 23215.24529789954, "timestamp": "2025-12-18T10:51:26.069203+00:00", "meta": {"OBJECT_NAME": "GSAT0220 (GALILEO 24)", "OBJECT_ID": "2018-060D", "EPOCH": "2025-12-13T18:41:25.404000", "MEAN_MOTION": 1.70475925, "ECCENTRICITY": 0.00061008, "INCLINATION": 57.2299, "RA_OF_ASC_NODE": 346.7937, "ARG_OF_PERICENTER": 285.541, "MEAN_ANOMALY": 74.4106, "EPHEMERIS_TYPE": 0, "CLASSIFICATION_TYPE": "U", "NORAD_CAT_ID": 43567, "ELEMENT_SET_NO": 999, "REV_AT_EPOCH": 4601, "BSTAR": 0, "MEAN_MOTION_DOT": -8.5e-07, "MEAN_MOTION_DDOT": 0}, "tle": {"line1": "1 43567U 18060D   25347.77876625 -.00000085  00000+0  00000+0 0  9991", "line2": "2 43567  57.2299 346.7937 0006100 285.5410  74.4106  1.70475925 46015"}}, "geometry": {"type": "Point", "coordinates": [-19.735207011403364, -9.812257138823444]}}, {"type": "Feature", "properties": {"norad_id": 49809, "name": "GSAT0223 (GALILEO 27)", "group": "galileo", "lat": 55.60016721849628, "lon": 56.8321109497363, "alt_km": 23228.66688965821, "timestamp": "2025-12-18T10:51:26.069215+00:00", "meta": {"OBJECT_NAME": "GSAT0223 (GALILEO 27)", "OBJECT_ID": "2021-116A", "EPOCH": "2025-12-16T20:22:21.643104", "MEAN_MOTION": 1.70476101, "ECCENTRICITY": 0.00044272, "INCLINATION": 57.2185, "RA_OF_ASC_NODE": 346.6017, "ARG_OF_PERICENTER": 254.1798, "MEAN_ANOMALY": 280.7094, "EPHEMERIS_TYPE": 0, "CLASSIFICATION_TYPE": "U", "NORAD_CAT_ID": 49809, "ELEMENT_SET_NO": 999, "REV_AT_EPOCH": 2507, "BSTAR": 0, "MEAN_MOTION_DOT": -7.9e-07, "MEAN_MOTION_DDOT": 0}, "tle": {"line1": "1 49809U 21116A   25350.84886161 -.00000079  00000+0  00000+0 0  9993", "line2": "2 49809  57.2185 346.6017 0004427 254.1798 280.7094  1.70476101 25071"}}, "geometry": {"type": "Point", "coordinates": [56.8321109497363, 55.60016721849628]}}, {"type": "Feature", "properties": {"norad_id": 49810, "name": "GSAT0224 (GALILEO 28)", "group": "galileo", "lat": -9.727327822304765, "lon": 172.89516863634773, "alt_km": 23218.96000761303, "timestamp": "2025-12-18T10:51:26.069227+00:00", "meta": {"OBJECT_NAME": "GSAT0224 (GALILEO 28)", "OBJECT_ID": "2021-116B", "EPOCH": "2025-12-16T23:13:52.406688", "MEAN_MOTION": 1.70476122, "ECCENTRICITY": 0.00037953, "INCLINATION": 57.2194, "RA_OF_ASC_NODE": 346.5971, "ARG_OF_PERICENTER": 257.7514, "MEAN_ANOMALY": 102.8295, "EPHEMERIS_TYPE": 0, "CLASSIFICATION_TYPE": "U", "NORAD_CAT_ID": 49810, "ELEMENT_SET_NO": 999, "REV_AT_EPOCH": 2510, "BSTAR": 0, "MEAN_MOTION_DOT": -7.9e-07, "MEAN_MOTION_DDOT": 0}, "tle": {"line1": "1 49810U 21116B   25350.96796767 -.00000079  00000+0  00000+0 0  9990", "line2": "2 49810  57.2194 346.5971 0003795 257.7514 102.8295  1.70476122 25107"}}, "geometry": {"type": "Point", "coordinates": [172.89516863634773, -9.727327822304765]}}, {"type": "Feature", "properties": {"norad_id": 59598, "name": "GSAT0225 (GALILEO 29)", "group": "galileo", "lat": -3.4346856271411577, "lon": -71.46857879955213, "alt_km": 23216.43821924827, "timestamp": "2025-12-18T10:51:26.069239+00:00", "meta": {"OBJECT_NAME": "GSAT0225 (GALILEO 29)", "OBJECT_ID": "2024-079A", "EPOCH": "2025-12-16T09:22:38.225280", "MEAN_MOTION": 1.70475011, "ECCENTRICITY": 0.00021396, "INCLINATION": 55.0038, "RA_OF_ASC_NODE": 106.1932, "ARG_OF_PERICENTER": 182.0305, "MEAN_ANOMALY": 176.7742, "EPHEMERIS_TYPE": 0, "CLASSIFICATION_TYPE": "U", "NORAD_CAT_ID": 59598, "ELEMENT_SET_NO": 999, "REV_AT_EPOCH": 1019, "BSTAR": 0, "MEAN_MOTION_DOT": -1e-07, "MEAN_MOTION_DDOT": 0}, "tle": {"line1": "1 59598U 24079A   25350.39072020 -.00000010  00000+0  00000+0 0  9996", "line2": "2 59598  55.0038 106.1932 0002139 182.0305 176.7742  1.70475011 10196"}}, "geometry": {"type": "Point", "coordinates": [-71.46857879955213, -3.4346856271411577]}}, {"type": "Feature", "properties": {"norad_id": 59600, "name": "GSAT0227 (GALILEO 30)", "group": "galileo", "lat": 51.021770292234294, "lon": 165.99419303830146, "alt_km": 23209.81139882054, "timestamp": "2025-12-18T10:51:26.069251+00:00", "meta": {"OBJECT_NAME": "GSAT0227 (GALILEO 30)", "OBJECT_ID": "2024-079C", "EPOCH": "2025-12-17T17:58:49.656576", "MEAN_MOTION": 1.70474875, "ECCENTRICITY": 0.00029873, "INCLINATION": 54.9997, "RA_OF_ASC_NODE": 106.1542, "ARG_OF_PERICENTER": 116.3364, "MEAN_ANOMALY": 243.6531, "EPHEMERIS_TYPE": 0, "CLASSIFICATION_TYPE": "U", "NORAD_CAT_ID": 59600, "ELEMENT_SET_NO": 999, "REV_AT_EPOCH": 1027, "BSTAR": 0, "MEAN_MOTION_DOT": -9e-08, "MEAN_MOTION_DDOT": 0}, "tle": {"line1": "1 59600U 24079C   25351.74918584 -.00000009  00000+0  00000+0 0  9992", "line2": "2 59600  54.9997 106.1542 0002987 116.3364 243.6531  1.70474875 10271"}}, "geometry": {"type": "Point", "coordinates": [165.99419303830146, 51.021770292234294]}}, {"type": "Feature", "properties": {"norad_id": 61182, "name": "GSAT0232 (GALILEO 32)", "group": "galileo", "lat": -55.0428116366246, "lon": 129.31088588191236, "alt_km": 23224.978223117105, "timestamp": "2025-12-18T10:51:26.069263+00:00", "meta": {"OBJECT_NAME": "GSAT0232 (GALILEO 32)", "OBJECT_ID": "2024-167A", "EPOCH": "2025-12-15T09:09:10.050912", "MEAN_MOTION": 1.70473627, "ECCENTRICITY": 0.00018812, "INCLINATION": 55.2399, "RA_OF_ASC_NODE": 226.3583, "ARG_OF_PERICENTER": 210.2547, "MEAN_ANOMALY": 331.0661, "EPHEMERIS_TYPE": 0, "CLASSIFICATION_TYPE": "U", "NORAD_CAT_ID": 61182, "ELEMENT_SET_NO": 999, "REV_AT_EPOCH": 774, "BSTAR": 0, "MEAN_MOTION_DOT": 4.1e-07, "MEAN_MOTION_DDOT": 0}, "tle": {"line1": "1 61182U 24167A   25349.38136633  .00000041  00000+0  00000+0 0  9997", "line2": "2 61182  55.2399 226.3583 0001881 210.2547 331.0661  1.70473627  7746"}}, "geometry": {"type": "Point", "coordinates": [129.31088588191236, -55.0428116366246]}}]}